SatCatId,ObjectName,LaunchYear,OrbitalPeriod,LaunchMass,StatusCode,Inclination,Status,UcsData,OrbitClassEstimated,LaunchSiteCountry,Owner,UseType,Purpose,LaunchVehicleClass,TLE1,TLE2,MeanMotion,Eccentricity,OrbitClass
47822,STARLINK-2407,2021,95.59,260.0,+,53.06,Active,1,LEO,USA,USA,Commercial,Communications,Falcon,1 47822U 21018AM  24357.51524229  .00007130  00000+0  49706-3 0  9995,2 47822  53.0540  86.6051 0001295  77.3116 282.8018 15.06401231209812,15.06401231,0.0001295,LEO
47823,STARLINK-2408,2021,95.59,260.0,+,53.05,Active,1,LEO,USA,USA,Commercial,Communications,Falcon,1 47823U 21018AN  24357.46454332  .00005492  00000+0  38732-3 0  9993,2 47823  53.0544  76.8316 0001335 104.5635 255.5502 15.06397141209949,15.06397141,0.0001335,LEO
47824,STARLINK-2409,2021,95.59,260.0,+,53.05,Active,1,LEO,USA,USA,Commercial,Communications,Falcon,1 47824U 21018AP  24357.45443823 -.00003473  00000+0 -21439-3 0  9991,2 47824  53.0550  76.8888 0001611  99.2840 260.8331 15.06397602209936,15.06397602,0.0001611,LEO
47825,STARLINK-2410,2021,95.59,260.0,+,53.05,Active,1,LEO,USA,USA,Commercial,Communications,Falcon,1 47825U 21018AQ  24357.60556109  .00026211  00000+0  17707-2 0  9996,2 47825  53.0544  76.2113 0001579  76.2380 283.8785 15.06427216209968,15.06427216,0.0001579,LEO
47826,STARLINK-2411,2021,95.59,260.0,+,53.06,Active,1,LEO,USA,USA,Commercial,Communications,Falcon,1 47826U 21018AR  24357.60185739  .00022806  00000+0  15431-2 0  9992,2 47826  53.0547  76.2257 0001440 100.9107 259.2044 15.06445941209960,15.06445941,0.000144,LEO
47827,STARLINK-2413,2021,95.59,260.0,+,53.05,Active,1,LEO,USA,USA,Commercial,Communications,Falcon,1 47827U 21018AS  24357.51803679  .00021683  00000+0  14687-2 0  9997,2 47827  53.0545  66.8457 0001305  95.4646 264.6492 15.06434686210145,15.06434686,0.0001305,LEO
47828,STARLINK-2415,2021,95.59,260.0,+,53.05,Active,1,LEO,USA,USA,Commercial,Communications,Falcon,1 47828U 21018AT  24357.51985342  .00019232  00000+0  13055-2 0  9991,2 47828  53.0538  86.5986 0001534  67.1339 292.9812 15.06428379209817,15.06428379,0.0001534,LEO
47829,STARLINK-2416,2021,95.59,260.0,+,53.06,Active,1,LEO,USA,USA,Commercial,Communications,Falcon,1 47829U 21018AU  24357.53828266  .00007700  00000+0  53495-3 0  9995,2 47829  53.0548  86.5171 0001417 101.0515 259.0634 15.06421094209801,15.06421094,0.0001417,LEO
47830,STARLINK-2419,2021,95.61,260.0,+,53.06,Active,1,LEO,USA,USA,Commercial,Communications,Falcon,1 47830U 21018AV  24357.58334491 -.00121653  00000+0 -82817-2 0  9999,2 47830  53.0542  86.3095 0001151  72.2570 192.3679 15.06432838209485,15.06432838,0.0001151,LEO
47831,STARLINK-2420,2021,95.59,260.0,+,53.05,Active,1,LEO,USA,USA,Commercial,Communications,Falcon,1 47831U 21018AW  24357.60140274  .00022011  00000+0  14904-2 0  9995,2 47831  53.0559  61.2271 0001524  84.4246 275.6917 15.06439565210229,15.06439565,0.0001524,LEO
47832,STARLINK-2422,2021,95.59,260.0,+,53.06,Active,1,LEO,USA,USA,Commercial,Communications,Falcon,1 47832U 21018AX  24357.49129231  .00023461  00000+0  15867-2 0  9992,2 47832  53.0543  76.7234 0001435  83.5841 276.5311 15.06446085209945,15.06446085,0.0001435,LEO
47833,STARLINK-2423,2021,95.59,260.0,+,53.06,Active,1,LEO,USA,USA,Commercial,Communications,Falcon,1 47833U 21018AY  24357.51709273  .00003279  00000+0  23883-3 0  9999,2 47833  53.0546  76.6036 0001270 110.0853 250.0273 15.06408888210006,15.06408888,0.000127,LEO
47834,STARLINK-2424,2021,95.59,260.0,+,53.05,Active,1,LEO,USA,USA,Commercial,Communications,Falcon,1 47834U 21018AZ  24357.52815939  .00000594  00000+0  58745-4 0  9991,2 47834  53.0550  76.5542 0001498  79.9155 280.2003 15.06398357210008,15.06398357,0.0001498,LEO
47836,STARLINK-2426,2021,95.59,260.0,+,53.06,Active,1,LEO,USA,USA,Commercial,Communications,Falcon,1 47836U 21018BB  24357.54660860 -.00011619  00000+0 -76313-3 0  9998,2 47836  53.0557  76.5624 0001810  84.8474 275.2722 15.06364103209951,15.06364103,0.000181,LEO
47837,STARLINK-2427,2021,95.59,260.0,+,53.05,Active,1,LEO,USA,USA,Commercial,Communications,Falcon,1 47837U 21018BC  24357.48946606  .00022394  00000+0  15166-2 0  9995,2 47837  53.0539  56.7313 0001381  92.8091 267.3056 15.06422347210234,15.06422347,0.0001381,LEO
47838,STARLINK-2429,2021,95.59,260.0,+,53.06,Active,1,LEO,USA,USA,Commercial,Communications,Falcon,1 47838U 21018BD  24357.50235799  .00002013  00000+0  15396-3 0  9995,2 47838  53.0550  76.6757 0001496  72.8629 287.2524 15.06401763209949,15.06401763,0.0001496,LEO
47839,STARLINK-2431,2021,95.59,260.0,+,53.06,Active,1,LEO,USA,USA,Commercial,Communications,Falcon,1 47839U 21018BE  24357.46456970  .00015676  00000+0  10680-2 0  9996,2 47839  53.0553  46.8422 0001589  84.7882 275.3288 15.06431772210374,15.06431772,0.0001589,LEO
47840,STARLINK-2432,2021,95.59,260.0,+,53.05,Active,1,LEO,USA,USA,Commercial,Communications,Falcon,1 47840U 21018BF  24357.60739520  .00020761  00000+0  14072-2 0  9999,2 47840  53.0549  56.2047 0001653  85.9722 274.1456 15.06436398210246,15.06436398,0.0001653,LEO
47841,STARLINK-2433,2021,95.59,260.0,+,53.05,Active,1,LEO,USA,USA,Commercial,Communications,Falcon,1 47841U 21018BG  24357.60370870  .00020094  00000+0  13624-2 0  9990,2 47841  53.0551  56.2193 0001217  91.7469 268.3659 15.06444110210242,15.0644411,0.0001217,LEO
47842,STARLINK-2434,2021,91.76,260.0,P,53.05,Active,1,LEO,USA,USA,Commercial,Communications,Falcon,1 47842U 21018BH  24357.58334491  .01256162  00000+0  84835-2 0  9997,2 47842  53.0517  78.1814 0001338  71.9031  62.3382 15.71884556  5563,15.71884556,0.0001338,LEO
47843,STARLINK-2435,2021,95.59,260.0,+,53.05,Active,1,LEO,USA,USA,Commercial,Communications,Falcon,1 47843U 21018BJ  24357.56270374  .00026625  00000+0  17990-2 0  9991,2 47843  53.0532  81.4031 0001338  88.5713 271.5430 15.06411938209900,15.06411938,0.0001338,LEO
47844,STARLINK-2446,2021,95.59,260.0,+,53.06,Active,1,LEO,USA,USA,Commercial,Communications,Falcon,1 47844U 21018BK  24357.49498161  .00000342  00000+0  41874-4 0  9998,2 47844  53.0567  76.7117 0002055  65.0963 295.0239 15.06402399209948,15.06402399,0.0002055,LEO
47845,STARLINK-2453,2021,95.59,260.0,+,53.05,Active,1,LEO,USA,USA,Commercial,Communications,Falcon,1 47845U 21018BL  24357.51339986  .00022373  00000+0  15140-2 0  9994,2 47845  53.0543  76.6267 0001469  84.6185 275.4972 15.06452367209956,15.06452367,0.0001469,LEO
47851,SHIYAN 9 (SY-9),2021,1435.94,5000.0,+,17.7,Active,1,GSO,PRC,China,Government,Technology Development,Long March,1 47851U 21019A   24357.37650394 -.00000231  00000+0  00000+0 0  9991,2 47851  17.7025 309.4141 0014637  12.5317  51.3029  1.00282244 18700,1.00282244,0.0014637,GSO
47854,YAOGAN-31 04A,2021,107.03,500.0,+,63.41,Active,1,LEO,PRC,China,Military,Earth Observation,Long March,1 47854U 21020A   24357.61790503 -.00000023  00000+0  10834-3 0  9999,2 47854  63.4053 209.3564 0126693 358.5244   1.5390 13.45372956185601,13.45372956,0.0126693,LEO
47856,YAOGAN-31 04B,2021,107.03,500.0,+,63.41,Active,1,LEO,PRC,China,Military,Earth Observation,Long March,1 47856U 21020C   24357.61807424 -.00000017  00000+0  11781-3 0  9997,2 47856  63.4048 210.1665 0126422 358.5755   1.4894 13.45375740185541,13.4537574,0.0126422,LEO
47857,YAOGAN-31 04C,2021,107.03,500.0,+,63.41,Active,1,LEO,PRC,China,Military,Earth Observation,Long March,1 47857U 21020D   24357.61813529 -.00000016  00000+0  11999-3 0  9991,2 47857  63.4059 209.4077 0126535 358.5098   1.5534 13.45376751185597,13.45376751,0.0126535,LEO
47860,STARLINK-2258,2021,91.96,260.0,P,53.05,Active,1,LEO,USA,USA,Commercial,Communications,Falcon,1 47860U 21021A   24357.55051161  .00443145  00000+0  39050-2 0  9995,2 47860  53.0563  97.6575 0001560 123.2458 236.8706 15.66816787209430,15.66816787,0.000156,LEO
47861,STARLINK-2280,2021,95.59,260.0,+,53.05,Active,1,LEO,USA,USA,Commercial,Communications,Falcon,1 47861U 21021B   24357.53229376  .00018899  00000+0  12833-2 0  9993,2 47861  53.0543  91.5408 0001727  58.9649 301.1509 15.06427681209621,15.06427681,0.0001727,LEO
47862,STARLINK-2291,2021,95.59,260.0,+,53.06,Active,1,LEO,USA,USA,Commercial,Communications,Falcon,1 47862U 21021C   24357.51248092  .00008629  00000+0  59692-3 0  9993,2 47862  53.0550  86.6332 0001641  73.4514 286.6655 15.06433316209686,15.06433316,0.0001641,LEO
47863,STARLINK-2293,2021,95.59,260.0,+,53.05,Active,1,LEO,USA,USA,Commercial,Communications,Falcon,1 47863U 21021D   24357.53737459  .00002423  00000+0  18151-3 0  9997,2 47863  53.0554  96.5115 0001681  92.9367 267.1815 15.06392946209557,15.06392946,0.0001681,LEO
47864,STARLINK-2304,2021,92.43,260.0,P,53.05,Active,1,LEO,USA,USA,Commercial,Communications,Falcon,1 47864U 21021E   24357.58334491  .00435240  00000+0  52338-2 0  9993,2 47864  53.0550  78.5741 0001301  63.2917 317.6443 15.58860675  5817,15.58860675,0.0001301,LEO
47865,STARLINK-2310,2021,92.73,260.0,P,53.05,Active,1,LEO,USA,USA,Commercial,Communications,Falcon,1 47865U 21021F   24357.54715091  .00172531  00000+0  26374-2 0  9991,2 47865  53.0454  84.8743 0001256  71.8212 288.2934 15.53312211209823,15.53312211,0.0001256,LEO
47866,STARLINK-2320,2021,92.75,260.0,P,53.06,Active,1,LEO,USA,USA,Commercial,Communications,Falcon,1 47866U 21021G   24357.58334491  .00233700  00000+0  35678-2 0  9990,2 47866  53.0551  86.9199 0001189  59.1430  70.4488 15.53112604  5795,15.53112604,0.0001189,LEO
47867,STARLINK-2321,2021,92.31,260.0,P,53.05,Active,1,LEO,USA,USA,Commercial,Communications,Falcon,1 47867U 21021H   24357.46703416  .00053741  00000+0  65506-3 0  9994,2 47867  53.0552  70.8828 0001391 110.6742 249.4420 15.59986503209863,15.59986503,0.0001391,LEO
47868,STARLINK-2323,2021,95.59,260.0,+,53.05,Active,1,LEO,USA,USA,Commercial,Communications,Falcon,1 47868U 21021J   24357.50236634  .00015590  00000+0  10624-2 0  9993,2 47868  53.0564  36.6716 0001807  73.4561 286.6626 15.06428348210391,15.06428348,0.0001807,LEO
